#aV2013  4 29  0  0  0.00000000     288 DD+AD WGS84 FIT  NGA
## 1738  86400.00000000   300.00000000 56411 0.0000000000000
+   30     1  2  3  4  5  6  7  8  9 10 11 12 13 14 15 16 17
+         18 19 20 21 22 23 24 25 26 28 29 31 32  0  0  0  0
+          0  0  0  0  0  0  0  0  0  0  0  0  0  0  0  0  0
+          0  0  0  0  0  0  0  0  0  0  0  0  0  0  0  0  0
+          0  0  0  0  0  0  0  0  0  0  0  0  0  0  0  0  0
++         2  2  2  2  2  2  2  2  2  2  2  2  2  2  2  2  2
++         2  2  2  2  2  2  2  2  2  2  2  2  2  2  2  0  0
++         0  0  0  0  0  0  0  0  0  0  0  0  0  0  0  0  0
++         0  0  0  0  0  0  0  0  0  0  0  0  0  0  0  0  0
++         0  0  0  0  0  0  0  0  0  0  0  0  0  0  0  0  0
%c cc cc ccc ccc cccc cccc cccc cccc ccccc ccccc ccccc ccccc
%c cc cc ccc ccc cccc cccc cccc cccc ccccc ccccc ccccc ccccc
%f  0.0000000  0.000000000  0.00000000000  0.000000000000000
%f  0.0000000  0.000000000  0.00000000000  0.000000000000000
%i    0    0    0    0      0      0      0      0         0
%i    0    0    0    0      0      0      0      0         0
/*      NGA, ST. LOUIS,MO.                                  
/*   EPHEMERIS COMPUTED FROM  1 DAYS OF DATA
/*   EPOCHA SMOOTHER  
/* CCCCCCCCCCCCCCCCCCCCCCCCCCCCCCCCCCCCCCCCCCCCCCCCCCCCCCCCC
*  2013  4 29 16 20  0.00000000                                                 
P  1 -18746.179904  -6989.021470  17494.862440     20.940362                    
V  1 -10306.475415 -19751.152461 -18834.281253      0.038232                    
P  2  13397.236296  23196.237192   1912.996342    429.702143                    
V  2  -3739.060480   -145.099479  30799.709975      0.018713                    
P  3 -16345.732675 -10960.639839 -18445.685977    200.390784                    
V  3  21774.607005  -5539.000274 -16243.837969      0.049213                    
P  4   4260.298659  23122.097254  11802.087860    204.209737                    
V  4 -11013.683140 -11477.611615  26127.564448      0.105590                    
P  5   7216.779711  16359.601712 -19622.797616   -393.170215                    
V  5 -12943.378786  21363.703818  13208.137408     -0.011559                    
P  6 -10398.076776 -13786.311407 -20180.629791    253.366498                    
V  6  25588.478074  -3464.261326 -10408.424411     -0.159802                    
P  7 -12207.034026   8548.774829 -21935.233617    208.190099                    
V  7 -14456.812102 -23883.525052  -1546.739428      0.042573                    
P  8  -5459.657799  17215.886897 -19140.785856      5.881099                    
V  8 -11670.379472 -21752.201847 -16717.548304      0.002648                    
P  9   8781.061441  23917.018454  -7892.896168    237.447315                    
V  9  -6536.245636  -6849.122715 -30208.639824      0.026409                    
P 10  -6682.735162  24220.022535  -8219.880645    -78.154062                    
V 10  -7907.578117   7258.599505  29248.783967     -0.012071                    
P 11 -22747.872587 -10503.672095   8764.821510   -377.067456                    
V 11  -5913.847976 -11125.023214 -27046.910171     -0.036867                    
P 12  16258.652271   -369.049231  20917.924217    131.053992                    
V 12 -12618.428860  23457.300451  10409.277512      0.020832                    
P 13 -24369.997898   4858.292087  -9698.276136    123.975483                    
V 13 -11893.245473  -2607.087463  28886.400034     -0.036104                    
P 14   8016.465756 -14096.711958  21202.458561    221.037032                    
V 14  26412.756564   1710.783456  -9073.845471     -0.000527                    
P 15  24948.794897   4566.128586  -8345.183420   -117.156056                    
V 15 -10312.246153   3593.459994 -28710.713130     -0.014772                    
P 16  -5376.273217 -16669.683527 -19873.180341   -252.362777                    
V 16  13910.387279 -21089.911391  14269.810169      0.001704                    
P 17  -7463.968464  14560.927495  21093.009721     24.673052                    
V 17 -26313.917476   -999.485962  -8941.620541     -0.040123                    
P 18  15723.777826 -20268.059363  -5721.089928    251.202602                    
V 18   -129.553116   8875.042278 -30069.046956      0.017866                    
P 19 -22723.890617  -9004.728599 -10984.665851   -368.872643                    
V 19  13769.848014  -1255.963746 -27255.340907     -0.031269                    
P 20 -17842.500604   4771.721042  18889.996517     95.439976                    
V 20   8763.025315 -22940.099454  14014.738454      0.019419                    
P 21   9967.967873 -12740.199616 -20424.003488   -294.698098                    
V 21  15440.214938  22708.812265  -6981.385616     -0.021415                    
P 22   9187.912177 -24432.315948   4665.661860    166.094470                    
V 22   6186.742852  -3192.398256 -30287.459167      0.013503                    
P 23 -26773.889415    498.461096     62.564227     90.542443                    
V 23    -52.457053  -2630.693435  31391.178942     -0.036230                    
P 24  19177.417037  10467.015036  15120.906232     -5.400761                    
V 24   8538.057206  17329.685886 -22765.088815     -0.007598                    
P 25  18034.686946 -12217.790225  15077.824004     92.350406                    
V 25  -7328.587263  17890.054368  23286.944041      0.039659                    
P 26  15070.102917  13189.449861 -18258.264631     -7.604422                    
V 26 -21743.811189   -373.073445 -18563.638786      0.151714                    
P 28 -12532.758930  23254.085138   2091.541843    254.197420                    
V 28  -2915.105186    511.570418 -32224.473563      0.032798                    
P 29  24380.467277  -5677.057406  -8752.292994    430.866034                    
V 29  11158.119483   2668.176784  29213.334207      0.036933                    
P 31  -5150.744718 -23484.197168  11135.465196    312.507096                    
V 31   8850.332359  10981.424967  27947.989548      0.014231                    
P 32 -14600.683004  -5779.531350  21511.451988   -553.296327                    
V 32  14281.260666 -23028.030147   4044.022934     -0.021991                    
EOF
